[{"CCSDS_OMM_VERS":"2.0","COMMENT":"GENERATED VIA SPACE-TRACK.ORG API","CREATION_DATE":"2021-04-06T17:59:24","ORIGINATOR":"18 SPCS","OBJECT_NAME":"ONEWEB-0135","OBJECT_ID":"2020-100Z","CENTER_NAME":"EARTH","REF_FRAME":"TEME","TIME_SYSTEM":"UTC","MEAN_ELEMENT_THEORY":"SGP4","EPOCH":"2021-04-06T06:00:00.999648","MEAN_MOTION":"13.28418862","ECCENTRICITY":"0.00073770","INCLINATION":"87.9612","RA_OF_ASC_NODE":"7.9867","ARG_OF_PERICENTER":"258.3062","MEAN_ANOMALY":"102.2744","EPHEMERIS_TYPE":"0","CLASSIFICATION_TYPE":"U","NORAD_CAT_ID":"47281","ELEMENT_SET_NO":"999","REV_AT_EPOCH":"172","BSTAR":"0.01846700000000","MEAN_MOTION_DOT":"0.00008439","MEAN_MOTION_DDOT":"0.0000000000000","SEMIMAJOR_AXIS":"7530.870","PERIOD":"108.400","APOAPSIS":"1158.291","PERIAPSIS":"1147.180","OBJECT_TYPE":"PAYLOAD","RCS_SIZE":"LARGE","COUNTRY_CODE":"UK","LAUNCH_DATE":"2020-12-18","SITE":"VOSTO","DECAY_DATE":null,"FILE":"3009143","GP_ID":"175007870","TLE_LINE0":"0 ONEWEB-0135","TLE_LINE1":"1 47281U 20100Z   21096.25001157  .00008439  00000-0  18467-1 0  9995","TLE_LINE2":"2 47281  87.9612   7.9867 0007377 258.3062 102.2744 13.28418862  1727"},{"CCSDS_OMM_VERS":"2.0","COMMENT":"GENERATED VIA SPACE-TRACK.ORG API","CREATION_DATE":"2021-04-07T02:50:05","ORIGINATOR":"18 SPCS","OBJECT_NAME":"ONEWEB-0135","OBJECT_ID":"2020-100Z","CENTER_NAME":"EARTH","REF_FRAME":"TEME","TIME_SYSTEM":"UTC","MEAN_ELEMENT_THEORY":"SGP4","EPOCH":"2021-04-06T22:00:00.999936","MEAN_MOTION":"13.28421801","ECCENTRICITY":"0.00050620","INCLINATION":"87.9610","RA_OF_ASC_NODE":"7.8549","ARG_OF_PERICENTER":"256.5202","MEAN_ANOMALY":"50.4185","EPHEMERIS_TYPE":"0","CLASSIFICATION_TYPE":"U","NORAD_CAT_ID":"47281","ELEMENT_SET_NO":"999","REV_AT_EPOCH":"172","BSTAR":"-0.03546800000000","MEAN_MOTION_DOT":"-0.00016125","MEAN_MOTION_DDOT":"0.0000000000000","SEMIMAJOR_AXIS":"7530.859","PERIOD":"108.399","APOAPSIS":"1156.536","PERIAPSIS":"1148.912","OBJECT_TYPE":"PAYLOAD","RCS_SIZE":"LARGE","COUNTRY_CODE":"UK","LAUNCH_DATE":"2020-12-18","SITE":"VOSTO","DECAY_DATE":null,"FILE":"3009448","GP_ID":"175035762","TLE_LINE0":"0 ONEWEB-0135","TLE_LINE1":"1 47281U 20100Z   21096.91667824 -.00016125  00000-0 -35468-1 0  9990","TLE_LINE2":"2 47281  87.9610   7.8549 0005062 256.5202  50.4185 13.28421801  1726"},{"CCSDS_OMM_VERS":"2.0","COMMENT":"GENERATED VIA SPACE-TRACK.ORG API","CREATION_DATE":"2021-04-07T06:36:14","ORIGINATOR":"18 SPCS","OBJECT_NAME":"ONEWEB-0135","OBJECT_ID":"2020-100Z","CENTER_NAME":"EARTH","REF_FRAME":"TEME","TIME_SYSTEM":"UTC","MEAN_ELEMENT_THEORY":"SGP4","EPOCH":"2021-04-07T06:00:00.999648","MEAN_MOTION":"13.28427930","ECCENTRICITY":"0.00037220","INCLINATION":"87.9610","RA_OF_ASC_NODE":"7.7886","ARG_OF_PERICENTER":"256.0619","MEAN_ANOMALY":"204.0466","EPHEMERIS_TYPE":"0","CLASSIFICATION_TYPE":"U","NORAD_CAT_ID":"47281","ELEMENT_SET_NO":"999","REV_AT_EPOCH":"1590","BSTAR":"-0.02949900000000","MEAN_MOTION_DOT":"-0.00013414","MEAN_MOTION_DDOT":"0.0000000000000","SEMIMAJOR_AXIS":"7530.836","PERIOD":"108.399","APOAPSIS":"1155.504","PERIAPSIS":"1149.898","OBJECT_TYPE":"PAYLOAD","RCS_SIZE":"LARGE","COUNTRY_CODE":"UK","LAUNCH_DATE":"2020-12-18","SITE":"VOSTO","DECAY_DATE":null,"FILE":"3009577","GP_ID":"175039698","TLE_LINE0":"0 ONEWEB-0135","TLE_LINE1":"1 47281U 20100Z   21097.25001157 -.00013414  00000-0 -29499-1 0  9994","TLE_LINE2":"2 47281  87.9610   7.7886 0003722 256.0619 204.0466 13.28427930 15900"},{"CCSDS_OMM_VERS":"2.0","COMMENT":"GENERATED VIA SPACE-TRACK.ORG API","CREATION_DATE":"2021-04-08T02:29:46","ORIGINATOR":"18 SPCS","OBJECT_NAME":"ONEWEB-0135","OBJECT_ID":"2020-100Z","CENTER_NAME":"EARTH","REF_FRAME":"TEME","TIME_SYSTEM":"UTC","MEAN_ELEMENT_THEORY":"SGP4","EPOCH":"2021-04-08T00:00:00.999648","MEAN_MOTION":"13.28419834","ECCENTRICITY":"0.00011210","INCLINATION":"87.9613","RA_OF_ASC_NODE":"7.6402","ARG_OF_PERICENTER":"248.6148","MEAN_ANOMALY":"196.1468","EPHEMERIS_TYPE":"0","CLASSIFICATION_TYPE":"U","NORAD_CAT_ID":"47281","ELEMENT_SET_NO":"999","REV_AT_EPOCH":"174","BSTAR":"-0.03582200000000","MEAN_MOTION_DOT":"-0.00016284","MEAN_MOTION_DDOT":"0.0000000000000","SEMIMAJOR_AXIS":"7530.866","PERIOD":"108.399","APOAPSIS":"1153.576","PERIAPSIS":"1151.887","OBJECT_TYPE":"PAYLOAD","RCS_SIZE":"LARGE","COUNTRY_CODE":"UK","LAUNCH_DATE":"2020-12-18","SITE":"VOSTO","DECAY_DATE":null,"FILE":"3010760","GP_ID":"175109879","TLE_LINE0":"0 ONEWEB-0135","TLE_LINE1":"1 47281U 20100Z   21098.00001157 -.00016284  00000-0 -35822-1 0  9993","TLE_LINE2":"2 47281  87.9613   7.6402 0001121 248.6148 196.1468 13.28419834  1745"},{"CCSDS_OMM_VERS":"2.0","COMMENT":"GENERATED VIA SPACE-TRACK.ORG API","CREATION_DATE":"2021-04-08T06:26:11","ORIGINATOR":"18 SPCS","OBJECT_NAME":"ONEWEB-0135","OBJECT_ID":"2020-100Z","CENTER_NAME":"EARTH","REF_FRAME":"TEME","TIME_SYSTEM":"UTC","MEAN_ELEMENT_THEORY":"SGP4","EPOCH":"2021-04-08T06:00:02.000160","MEAN_MOTION":"13.28411501","ECCENTRICITY":"0.00002630","INCLINATION":"87.9614","RA_OF_ASC_NODE":"7.5907","ARG_OF_PERICENTER":"209.9558","MEAN_ANOMALY":"349.7410","EPHEMERIS_TYPE":"0","CLASSIFICATION_TYPE":"U","NORAD_CAT_ID":"47281","ELEMENT_SET_NO":"999","REV_AT_EPOCH":"1603","BSTAR":"0.02597200000000","MEAN_MOTION_DOT":"0.00011865","MEAN_MOTION_DDOT":"0.0000000000000","SEMIMAJOR_AXIS":"7530.898","PERIOD":"108.400","APOAPSIS":"1152.961","PERIAPSIS":"1152.565","OBJECT_TYPE":"PAYLOAD","RCS_SIZE":"LARGE","COUNTRY_CODE":"UK","LAUNCH_DATE":"2020-12-18","SITE":"VOSTO","DECAY_DATE":null,"FILE":"3010865","GP_ID":"175112736","TLE_LINE0":"0 ONEWEB-0135","TLE_LINE1":"1 47281U 20100Z   21098.25002315  .00011865  00000-0  25972-1 0  9990","TLE_LINE2":"2 47281  87.9614   7.5907 0000263 209.9558 349.7410 13.28411501 16030"},{"CCSDS_OMM_VERS":"2.0","COMMENT":"GENERATED VIA SPACE-TRACK.ORG API","CREATION_DATE":"2021-04-08T19:46:40","ORIGINATOR":"18 SPCS","OBJECT_NAME":"ONEWEB-0135","OBJECT_ID":"2020-100Z","CENTER_NAME":"EARTH","REF_FRAME":"TEME","TIME_SYSTEM":"UTC","MEAN_ELEMENT_THEORY":"SGP4","EPOCH":"2021-04-08T12:00:00.999648","MEAN_MOTION":"13.28409820","ECCENTRICITY":"0.00008510","INCLINATION":"87.9615","RA_OF_ASC_NODE":"7.5420","ARG_OF_PERICENTER":"92.0121","MEAN_ANOMALY":"222.5157","EPHEMERIS_TYPE":"0","CLASSIFICATION_TYPE":"U","NORAD_CAT_ID":"47281","ELEMENT_SET_NO":"999","REV_AT_EPOCH":"176","BSTAR":"-0.00617230000000","MEAN_MOTION_DOT":"-0.00002799","MEAN_MOTION_DDOT":"0.0000000000000","SEMIMAJOR_AXIS":"7530.904","PERIOD":"108.400","APOAPSIS":"1153.410","PERIAPSIS":"1152.128","OBJECT_TYPE":"PAYLOAD","RCS_SIZE":"LARGE","COUNTRY_CODE":"UK","LAUNCH_DATE":"2020-12-18","SITE":"VOSTO","DECAY_DATE":null,"FILE":"3011702","GP_ID":"175153188","TLE_LINE0":"0 ONEWEB-0135","TLE_LINE1":"1 47281U 20100Z   21098.50001157 -.00002799  00000-0 -61723-2 0  9994","TLE_LINE2":"2 47281  87.9615   7.5420 0000851  92.0121 222.5157 13.28409820  1762"},{"CCSDS_OMM_VERS":"2.0","COMMENT":"GENERATED VIA SPACE-TRACK.ORG API","CREATION_DATE":"2021-04-09T02:40:50","ORIGINATOR":"18 SPCS","OBJECT_NAME":"ONEWEB-0135","OBJECT_ID":"2020-100Z","CENTER_NAME":"EARTH","REF_FRAME":"TEME","TIME_SYSTEM":"UTC","MEAN_ELEMENT_THEORY":"SGP4","EPOCH":"2021-04-08T22:00:00.999936","MEAN_MOTION":"13.28463511","ECCENTRICITY":"0.00016040","INCLINATION":"87.9618","RA_OF_ASC_NODE":"7.4589","ARG_OF_PERICENTER":"89.2963","MEAN_ANOMALY":"56.6826","EPHEMERIS_TYPE":"0","CLASSIFICATION_TYPE":"U","NORAD_CAT_ID":"47281","ELEMENT_SET_NO":"999","REV_AT_EPOCH":"182","BSTAR":"-0.08775300000000","MEAN_MOTION_DOT":"-0.00039831","MEAN_MOTION_DDOT":"0.0000000000000","SEMIMAJOR_AXIS":"7530.701","PERIOD":"108.396","APOAPSIS":"1153.774","PERIAPSIS":"1151.358","OBJECT_TYPE":"PAYLOAD","RCS_SIZE":"LARGE","COUNTRY_CODE":"UK","LAUNCH_DATE":"2020-12-18","SITE":"VOSTO","DECAY_DATE":null,"FILE":"3012011","GP_ID":"175182722","TLE_LINE0":"0 ONEWEB-0135","TLE_LINE1":"1 47281U 20100Z   21098.91667824 -.00039831  00000-0 -87753-1 0  9995","TLE_LINE2":"2 47281  87.9618   7.4589 0001604  89.2963  56.6826 13.28463511  1822"},{"CCSDS_OMM_VERS":"2.0","COMMENT":"GENERATED VIA SPACE-TRACK.ORG API","CREATION_DATE":"2021-04-09T09:46:11","ORIGINATOR":"18 SPCS","OBJECT_NAME":"ONEWEB-0135","OBJECT_ID":"2020-100Z","CENTER_NAME":"EARTH","REF_FRAME":"TEME","TIME_SYSTEM":"UTC","MEAN_ELEMENT_THEORY":"SGP4","EPOCH":"2021-04-09T08:00:01.000224","MEAN_MOTION":"13.28466953","ECCENTRICITY":"0.00016880","INCLINATION":"87.9620","RA_OF_ASC_NODE":"7.3766","ARG_OF_PERICENTER":"88.7610","MEAN_ANOMALY":"248.7304","EPHEMERIS_TYPE":"0","CLASSIFICATION_TYPE":"U","NORAD_CAT_ID":"47281","ELEMENT_SET_NO":"999","REV_AT_EPOCH":"1617","BSTAR":"-0.08291400000000","MEAN_MOTION_DOT":"-0.00037645","MEAN_MOTION_DDOT":"0.0000000000000","SEMIMAJOR_AXIS":"7530.688","PERIOD":"108.396","APOAPSIS":"1153.824","PERIAPSIS":"1151.282","OBJECT_TYPE":"PAYLOAD","RCS_SIZE":"LARGE","COUNTRY_CODE":"UK","LAUNCH_DATE":"2020-12-18","SITE":"VOSTO","DECAY_DATE":null,"FILE":"3012442","GP_ID":"175193805","TLE_LINE0":"0 ONEWEB-0135","TLE_LINE1":"1 47281U 20100Z   21099.33334491 -.00037645  00000-0 -82914-1 0  9998","TLE_LINE2":"2 47281  87.9620   7.3766 0001688  88.7610 248.7304 13.28466953 16178"}]